CCSDS_OMM_VERS = 2.0
CREATION_DATE  = 
ORIGINATOR     = 

OBJECT_NAME    = KUIPER-00250
OBJECT_ID      = 2025-301Y
CENTER_NAME    = EARTH
REF_FRAME      = TEME
TIME_SYSTEM    = UTC
MEAN_ELEMENT_THEORY = SGP/SGP4

EPOCH          = 2026-01-12T07:01:52.014432
MEAN_MOTION    = 15.36181931
ECCENTRICITY   = .00065674
INCLINATION    = 51.8735
RA_OF_ASC_NODE = 337.7707
ARG_OF_PERICENTER = 180.4049
MEAN_ANOMALY   = 179.6933

EPHEMERIS_TYPE = 0
CLASSIFICATION_TYPE = U
NORAD_CAT_ID   = 67155
ELEMENT_SET_NO = 999
REV_AT_EPOCH   = 509
BSTAR          = .92772339E-3
MEAN_MOTION_DOT = .32992E-3
MEAN_MOTION_DDOT = 0

CCSDS_OMM_VERS = 2.0
CREATION_DATE  = 
ORIGINATOR     = 

OBJECT_NAME    = KUIPER-00251
OBJECT_ID      = 2025-301Z
CENTER_NAME    = EARTH
REF_FRAME      = TEME
TIME_SYSTEM    = UTC
MEAN_ELEMENT_THEORY = SGP/SGP4

EPOCH          = 2026-01-12T07:19:17.591808
MEAN_MOTION    = 15.35340561
ECCENTRICITY   = .00092658
INCLINATION    = 51.8684
RA_OF_ASC_NODE = 337.8425
ARG_OF_PERICENTER = 189.8209
MEAN_ANOMALY   = 170.2597

EPHEMERIS_TYPE = 0
CLASSIFICATION_TYPE = U
NORAD_CAT_ID   = 67156
ELEMENT_SET_NO = 999
REV_AT_EPOCH   = 525
BSTAR          = .8987822E-3
MEAN_MOTION_DOT = .31106E-3
MEAN_MOTION_DDOT = 0

CCSDS_OMM_VERS = 2.0
CREATION_DATE  = 
ORIGINATOR     = 

OBJECT_NAME    = KUIPER-00252
OBJECT_ID      = 2025-301AA
CENTER_NAME    = EARTH
REF_FRAME      = TEME
TIME_SYSTEM    = UTC
MEAN_ELEMENT_THEORY = SGP/SGP4

EPOCH          = 2026-01-11T22:08:11.508288
MEAN_MOTION    = 15.34978676
ECCENTRICITY   = .0009943
INCLINATION    = 51.8675
RA_OF_ASC_NODE = 339.7737
ARG_OF_PERICENTER = 198.6302
MEAN_ANOMALY   = 161.4321

EPHEMERIS_TYPE = 0
CLASSIFICATION_TYPE = U
NORAD_CAT_ID   = 67157
ELEMENT_SET_NO = 999
REV_AT_EPOCH   = 500
BSTAR          = .91165514E-3
MEAN_MOTION_DOT = .31198E-3
MEAN_MOTION_DDOT = 0

CCSDS_OMM_VERS = 2.0
CREATION_DATE  = 
ORIGINATOR     = 

OBJECT_NAME    = KUIPER-00261
OBJECT_ID      = 2025-301AB
CENTER_NAME    = EARTH
REF_FRAME      = TEME
TIME_SYSTEM    = UTC
MEAN_ELEMENT_THEORY = SGP/SGP4

EPOCH          = 2026-01-12T07:00:41.100768
MEAN_MOTION    = 15.36228901
ECCENTRICITY   = .00068813
INCLINATION    = 51.8725
RA_OF_ASC_NODE = 337.7624
ARG_OF_PERICENTER = 174.5049
MEAN_ANOMALY   = 185.6014

EPHEMERIS_TYPE = 0
CLASSIFICATION_TYPE = U
NORAD_CAT_ID   = 67158
ELEMENT_SET_NO = 999
REV_AT_EPOCH   = 506
BSTAR          = .91392896E-3
MEAN_MOTION_DOT = .32545E-3
MEAN_MOTION_DDOT = 0

CCSDS_OMM_VERS = 2.0
CREATION_DATE  = 
ORIGINATOR     = 

OBJECT_NAME    = KUIPER-00265
OBJECT_ID      = 2025-301AC
CENTER_NAME    = EARTH
REF_FRAME      = TEME
TIME_SYSTEM    = UTC
MEAN_ELEMENT_THEORY = SGP/SGP4

EPOCH          = 2026-01-12T06:00:02.000160
MEAN_MOTION    = 15.23009998
ECCENTRICITY   = .00010907
INCLINATION    = 51.8809
RA_OF_ASC_NODE = 338.2571
ARG_OF_PERICENTER = 166.1932
MEAN_ANOMALY   = 197.9212

EPHEMERIS_TYPE = 0
CLASSIFICATION_TYPE = U
NORAD_CAT_ID   = 67159
ELEMENT_SET_NO = 999
REV_AT_EPOCH   = 508
BSTAR          = -.49895719E-1
MEAN_MOTION_DOT = -.1087397E-1
MEAN_MOTION_DDOT = 0

CCSDS_OMM_VERS = 2.0
CREATION_DATE  = 
ORIGINATOR     = 

OBJECT_NAME    = GALILEO 33
OBJECT_ID      = 2025-302A
CENTER_NAME    = EARTH
REF_FRAME      = TEME
TIME_SYSTEM    = UTC
MEAN_ELEMENT_THEORY = SGP/SGP4

EPOCH          = 2025-12-18T03:30:19.486368
MEAN_MOTION    = 1.72906186
ECCENTRICITY   = .00084238
INCLINATION    = 54.2406
RA_OF_ASC_NODE = 107.2544
ARG_OF_PERICENTER = 237.6458
MEAN_ANOMALY   = 122.2317

EPHEMERIS_TYPE = 0
CLASSIFICATION_TYPE = U
NORAD_CAT_ID   = 67160
ELEMENT_SET_NO = 999
REV_AT_EPOCH   = 2
BSTAR          = 0
MEAN_MOTION_DOT = -.7E-7
MEAN_MOTION_DDOT = 0

CCSDS_OMM_VERS = 2.0
CREATION_DATE  = 
ORIGINATOR     = 

OBJECT_NAME    = GALILEO B
OBJECT_ID      = 2025-302B
CENTER_NAME    = EARTH
REF_FRAME      = TEME
TIME_SYSTEM    = UTC
MEAN_ELEMENT_THEORY = SGP/SGP4

EPOCH          = 2026-01-11T10:14:05.165952
MEAN_MOTION    = 1.72972425
ECCENTRICITY   = .00050832
INCLINATION    = 54.2421
RA_OF_ASC_NODE = 106.5099
ARG_OF_PERICENTER = 260.1895
MEAN_ANOMALY   = 99.7577

EPHEMERIS_TYPE = 0
CLASSIFICATION_TYPE = U
NORAD_CAT_ID   = 67161
ELEMENT_SET_NO = 999
REV_AT_EPOCH   = 45
BSTAR          = 0
MEAN_MOTION_DOT = -.33E-6
MEAN_MOTION_DDOT = 0

CCSDS_OMM_VERS = 2.0
CREATION_DATE  = 
ORIGINATOR     = 

OBJECT_NAME    = GALILEO 33 (139)
OBJECT_ID      = 2025-302C
CENTER_NAME    = EARTH
REF_FRAME      = TEME
TIME_SYSTEM    = UTC
MEAN_ELEMENT_THEORY = SGP/SGP4

EPOCH          = 2025-12-22T04:22:43.605696
MEAN_MOTION    = 1.73130437
ECCENTRICITY   = .0000312
INCLINATION    = 54.2447
RA_OF_ASC_NODE = 107.1379
ARG_OF_PERICENTER = 196.8367
MEAN_ANOMALY   = 159.4994

EPHEMERIS_TYPE = 0
CLASSIFICATION_TYPE = U
NORAD_CAT_ID   = 67162
ELEMENT_SET_NO = 999
REV_AT_EPOCH   = 12
BSTAR          = 0
MEAN_MOTION_DOT = .6E-7
MEAN_MOTION_DDOT = 0

CCSDS_OMM_VERS = 2.0
CREATION_DATE  = 
ORIGINATOR     = 

OBJECT_NAME    = STARLINK-35755
OBJECT_ID      = 2025-303A
CENTER_NAME    = EARTH
REF_FRAME      = TEME
TIME_SYSTEM    = UTC
MEAN_ELEMENT_THEORY = SGP/SGP4

EPOCH          = 2025-12-17T14:36:01.999872
MEAN_MOTION    = 16.01284782
ECCENTRICITY   = .00115
INCLINATION    = 43.0100
RA_OF_ASC_NODE = 69.0834
ARG_OF_PERICENTER = 323.6500
MEAN_ANOMALY   = 9.4800

EPHEMERIS_TYPE = 0
CLASSIFICATION_TYPE = U
NORAD_CAT_ID   = 67163
ELEMENT_SET_NO = 999
REV_AT_EPOCH   = 1
BSTAR          = 0
MEAN_MOTION_DOT = -.2699E-4
MEAN_MOTION_DDOT = .8533731E-5

CCSDS_OMM_VERS = 2.0
CREATION_DATE  = 
ORIGINATOR     = 

OBJECT_NAME    = STARLINK-36201
OBJECT_ID      = 2025-303B
CENTER_NAME    = EARTH
REF_FRAME      = TEME
TIME_SYSTEM    = UTC
MEAN_ELEMENT_THEORY = SGP/SGP4

EPOCH          = 2025-12-17T14:36:01.999872
MEAN_MOTION    = 16.01284782
ECCENTRICITY   = .00115
INCLINATION    = 43.0100
RA_OF_ASC_NODE = 69.0834
ARG_OF_PERICENTER = 323.6500
MEAN_ANOMALY   = 9.4800

EPHEMERIS_TYPE = 0
CLASSIFICATION_TYPE = U
NORAD_CAT_ID   = 67164
ELEMENT_SET_NO = 999
REV_AT_EPOCH   = 1
BSTAR          = 0
MEAN_MOTION_DOT = -.2699E-4
MEAN_MOTION_DDOT = .8533731E-5

CCSDS_OMM_VERS = 2.0
CREATION_DATE  = 
ORIGINATOR     = 

OBJECT_NAME    = STARLINK-36186
OBJECT_ID      = 2025-303C
CENTER_NAME    = EARTH
REF_FRAME      = TEME
TIME_SYSTEM    = UTC
MEAN_ELEMENT_THEORY = SGP/SGP4

EPOCH          = 2025-12-17T14:36:01.999872
MEAN_MOTION    = 16.01284782
ECCENTRICITY   = .00115
INCLINATION    = 43.0100
RA_OF_ASC_NODE = 69.0834
ARG_OF_PERICENTER = 323.6500
MEAN_ANOMALY   = 9.4800

EPHEMERIS_TYPE = 0
CLASSIFICATION_TYPE = U
NORAD_CAT_ID   = 67165
ELEMENT_SET_NO = 999
REV_AT_EPOCH   = 1
BSTAR          = 0
MEAN_MOTION_DOT = -.2699E-4
MEAN_MOTION_DDOT = .8533731E-5

CCSDS_OMM_VERS = 2.0
CREATION_DATE  = 
ORIGINATOR     = 

OBJECT_NAME    = STARLINK-36174
OBJECT_ID      = 2025-303D
CENTER_NAME    = EARTH
REF_FRAME      = TEME
TIME_SYSTEM    = UTC
MEAN_ELEMENT_THEORY = SGP/SGP4

EPOCH          = 2025-12-17T14:36:01.999872
MEAN_MOTION    = 16.01284782
ECCENTRICITY   = .00115
INCLINATION    = 43.0100
RA_OF_ASC_NODE = 69.0834
ARG_OF_PERICENTER = 323.6500
MEAN_ANOMALY   = 9.4800

EPHEMERIS_TYPE = 0
CLASSIFICATION_TYPE = U
NORAD_CAT_ID   = 67166
ELEMENT_SET_NO = 999
REV_AT_EPOCH   = 1
BSTAR          = 0
MEAN_MOTION_DOT = -.2699E-4
MEAN_MOTION_DDOT = .8533731E-5

